{
  "norad_id": 45358,
  "name": "COSMOS 2545 [GLONASS-M]",
  "history": [
    {
      "epoch": "2026-03-26T03:58:22.686240Z",
      "apogee_km": 19148.918677394962,
      "perigee_km": 19110.786273768124,
      "latitude_deg": -4.4327548661028534e-05,
      "longitude_deg": 72.13930406372701,
      "height_km": 19137.880079981856,
      "semi_major_axis_km": 25507.989475581544,
      "eccentricity": 0.00074746,
      "inclination_deg": 64.4042,
      "raan_deg": 315.3386,
      "arg_perigee_deg": 246.9709,
      "mean_anomaly_deg": 113.0018,
      "mean_motion_rev_day": 2.13102438
    }
  ]
}